FENGYUN 1C DEB          
1 36681U 99025DZB 17335.33268943  .00000499  00000-0  33239-3 0  9991
2 36681  98.9190  19.7378 0045976 319.2607  40.5126 14.05270367315176
